NOAA 17                 
1 27453U 02032A   26065.30827408  .00000331  00000+0  15714-3 0  9996
2 27453  98.8537  29.9022 0010649 292.5463  67.4589 14.26186944232324
NOAA 18                 
1 28654U 05018A   26065.28614251  .00000091  00000+0  71130-4 0  9992
2 28654  98.8161 146.4411 0015331  84.4766 275.8155 14.13710043 71778
NOAA 19                 
1 33591U 09005A   26065.26672888  .00000086  00000+0  69799-4 0  9998
2 33591  98.9613 136.0320 0013021 324.9809  35.0506 14.13456081879945
SUOMI NPP               
1 37849U 11061A   26065.28948032  .00000144  00000+0  89148-4 0  9997
2 37849  98.7867   6.9192 0000402 263.2278  96.8853 14.19542441743841
NOAA 20 (JPSS-1)        
1 43013U 17073A   26065.30413478  .00000124  00000+0  79552-4 0  9996
2 43013  98.7689   5.7250 0001061 141.7646 218.3606 14.19535050429875
NOAA 21 (JPSS-2)        
1 54234U 22150A   26065.26839537  .00000135  00000+0  84905-4 0  9998
2 54234  98.7552   5.5736 0002593 112.6272 247.5179 14.19551134171943
