[{"OBJECT_NAME":"NOAA 17","OBJECT_ID":"2002-032A","EPOCH":"2026-03-06T07:23:54.880512","MEAN_MOTION":14.26186944,"ECCENTRICITY":0.00106499,"INCLINATION":98.8537,"RA_OF_ASC_NODE":29.9022,"ARG_OF_PERICENTER":292.5463,"MEAN_ANOMALY":67.4589,"EPHEMERIS_TYPE":0,"CLASSIFICATION_TYPE":"U","NORAD_CAT_ID":27453,"ELEMENT_SET_NO":999,"REV_AT_EPOCH":23232,"BSTAR":0.00015714079,"MEAN_MOTION_DOT":3.31e-6,"MEAN_MOTION_DDOT":0},{"OBJECT_NAME":"NOAA 18","OBJECT_ID":"2005-018A","EPOCH":"2026-03-06T06:52:02.712864","MEAN_MOTION":14.13710043,"ECCENTRICITY":0.00153318,"INCLINATION":98.8161,"RA_OF_ASC_NODE":146.4411,"ARG_OF_PERICENTER":84.4766,"MEAN_ANOMALY":275.8155,"EPHEMERIS_TYPE":0,"CLASSIFICATION_TYPE":"U","NORAD_CAT_ID":28654,"ELEMENT_SET_NO":999,"REV_AT_EPOCH":7177,"BSTAR":7.1130371e-5,"MEAN_MOTION_DOT":9.1e-7,"MEAN_MOTION_DDOT":0},{"OBJECT_NAME":"NOAA 19","OBJECT_ID":"2009-005A","EPOCH":"2026-03-06T06:24:05.375232","MEAN_MOTION":14.13456081,"ECCENTRICITY":0.00130219,"INCLINATION":98.9613,"RA_OF_ASC_NODE":136.032,"ARG_OF_PERICENTER":324.9809,"MEAN_ANOMALY":35.0506,"EPHEMERIS_TYPE":0,"CLASSIFICATION_TYPE":"U","NORAD_CAT_ID":33591,"ELEMENT_SET_NO":999,"REV_AT_EPOCH":87994,"BSTAR":6.9799256e-5,"MEAN_MOTION_DOT":8.6e-7,"MEAN_MOTION_DDOT":0},{"OBJECT_NAME":"SUOMI NPP","OBJECT_ID":"2011-061A","EPOCH":"2026-03-06T06:56:51.099648","MEAN_MOTION":14.19542441,"ECCENTRICITY":4.025e-5,"INCLINATION":98.7867,"RA_OF_ASC_NODE":6.9192,"ARG_OF_PERICENTER":263.2278,"MEAN_ANOMALY":96.8853,"EPHEMERIS_TYPE":0,"CLASSIFICATION_TYPE":"U","NORAD_CAT_ID":37849,"ELEMENT_SET_NO":999,"REV_AT_EPOCH":74384,"BSTAR":8.9147905e-5,"MEAN_MOTION_DOT":1.44e-6,"MEAN_MOTION_DDOT":0},{"OBJECT_NAME":"NOAA 20 (JPSS-1)","OBJECT_ID":"2017-073A","EPOCH":"2026-03-06T07:17:57.244992","MEAN_MOTION":14.1953505,"ECCENTRICITY":0.00010619,"INCLINATION":98.7689,"RA_OF_ASC_NODE":5.725,"ARG_OF_PERICENTER":141.7646,"MEAN_ANOMALY":218.3606,"EPHEMERIS_TYPE":0,"CLASSIFICATION_TYPE":"U","NORAD_CAT_ID":43013,"ELEMENT_SET_NO":999,"REV_AT_EPOCH":42987,"BSTAR":7.955203e-5,"MEAN_MOTION_DOT":1.24e-6,"MEAN_MOTION_DDOT":0},{"OBJECT_NAME":"NOAA 21 (JPSS-2)","OBJECT_ID":"2022-150A","EPOCH":"2026-03-06T06:26:29.359968","MEAN_MOTION":14.19551134,"ECCENTRICITY":0.00025935,"INCLINATION":98.7552,"RA_OF_ASC_NODE":5.5736,"ARG_OF_PERICENTER":112.6272,"MEAN_ANOMALY":247.5179,"EPHEMERIS_TYPE":0,"CLASSIFICATION_TYPE":"U","NORAD_CAT_ID":54234,"ELEMENT_SET_NO":999,"REV_AT_EPOCH":17194,"BSTAR":8.49054e-5,"MEAN_MOTION_DOT":1.35e-6,"MEAN_MOTION_DDOT":0}]
